OBJECT_NAME,OBJECT_ID,EPOCH,MEAN_MOTION,ECCENTRICITY,INCLINATION,RA_OF_ASC_NODE,ARG_OF_PERICENTER,MEAN_ANOMALY,EPHEMERIS_TYPE,CLASSIFICATION_TYPE,NORAD_CAT_ID,ELEMENT_SET_NO,REV_AT_EPOCH,BSTAR,MEAN_MOTION_DOT,MEAN_MOTION_DDOT
STARLINK-30360,2023-134F,2026-06-20T03:37:37.021152,15.27573374,.00011508,43.0018,336.1258,269.3685,90.7035,0,U,57776,999,15517,.38300075E-4,.792E-5,0
STARLINK-30355,2023-134G,2026-06-19T11:36:50.324256,15.27577620,.00027267,43.0136,343.1102,284.0667,75.9881,0,U,57777,999,15502,.61217896E-4,.1422E-4,0
STARLINK-30385,2023-134H,2026-06-19T20:12:34.768512,15.27578421,.0001575,43.0027,326.0981,267.1895,92.8777,0,U,57778,999,15510,.55084937E-4,.1254E-4,0
STARLINK-30359,2023-134J,2026-06-19T11:08:00.350880,15.27575430,.00011535,43.0004,328.4563,272.5601,87.5119,0,U,57779,999,15520,.14598545E-4,.14E-5,0
STARLINK-30380,2023-134K,2026-06-19T12:51:20.806272,15.27578312,.00013034,43.0043,339.2389,245.7890,114.2826,0,U,57780,999,15508,.29957791E-4,.562E-5,0
STARLINK-30369,2023-134L,2026-06-20T04:27:22.124736,15.27558900,.00014961,43.0063,335.5174,289.9912,70.0778,0,U,57781,999,15518,.3049552E-3,.8133E-4,0
STARLINK-30376,2023-134M,2026-06-20T04:12:33.105024,15.27586150,.00014814,43.0047,335.4507,270.0883,89.9799,0,U,57782,999,15518,.50816588E-4,.1137E-4,0
STARLINK-30389,2023-134N,2026-06-20T04:02:35.591136,15.27579828,.00012828,43.0039,338.8061,269.3366,90.7339,0,U,57783,999,15514,.59397914E-4,.1373E-4,0
STARLINK-30388,2023-134P,2026-06-20T04:18:05.605056,15.27564487,.00019512,43.0049,335.4782,266.5149,93.5479,0,U,57784,999,15518,.13847338E-3,.3548E-4,0
STARLINK-30381,2023-134Q,2026-06-19T13:02:25.713888,15.27580191,.00014148,43.0035,339.2072,252.9746,107.0950,0,U,57785,999,15508,.35891689E-4,.726E-5,0
STARLINK-30382,2023-134R,2026-06-20T04:06:59.842080,15.27585142,.00014587,43.0064,335.4204,272.1572,87.9113,0,U,57786,999,15518,.51334639E-4,.1151E-4,0
STARLINK-30378,2023-134S,2026-06-20T03:24:40.069152,15.27573854,.00008269,43.0010,336.0491,311.8866,48.1915,0,U,57787,999,15517,.13961026E-4,.122E-5,0
STARLINK-30387,2023-134T,2026-06-19T12:27:21.411648,15.27581485,.00013734,43.0044,328.0138,258.7699,101.2998,0,U,57788,999,15521,.43859791E-4,.945E-5,0
STARLINK-30372,2023-134U,2026-06-20T04:24:22.668480,15.27828529,.00019138,43.0020,219.5305,302.9438,57.1229,0,U,57789,999,15654,.19666481E-3,.5194E-4,0
STARLINK-30367,2023-134W,2026-06-19T12:56:54.732768,15.27578290,.00017681,43.0042,339.2739,281.6400,78.4253,0,U,57791,999,15508,.69841101E-4,.166E-4,0
TIANQI-21,2023-135A,2026-06-20T06:57:48.398400,14.23121787,.00137093,49.9708,139.2619,269.0196,90.9145,0,U,57792,999,14507,.13306697E-3,.144E-5,0
TIANQI-22,2023-135B,2026-06-20T06:32:35.283840,14.23242359,.00132612,49.9670,139.5324,273.4238,86.5157,0,U,57793,999,14506,-.18152861E-4,-.2E-5,0
TIANQI-23,2023-135C,2026-06-20T05:40:28.546464,14.23040285,.00139386,49.9712,139.7072,272.7017,87.2300,0,U,57794,999,14506,.18335163E-3,.257E-5,0
TIANQI-24,2023-135D,2026-06-20T06:06:38.799936,14.23143115,.00142935,49.9717,139.8757,273.2450,86.6827,0,U,57795,999,14506,.38395954E-4,-.72E-6,0
YAOGAN-33 03,2023-136A,2026-06-20T06:44:12.611328,14.58728473,.00078067,98.1954,95.5583,167.7402,192.3989,0,U,57797,999,14838,.7559783E-4,.307E-5,0
XRISM,2023-137A,2026-06-20T03:50:59.137152,15.12489019,.00079222,31.0032,340.3423,353.3613,6.6920,0,U,57800,999,15331,.22708659E-3,.4151E-4,0
STARLINK-30374,2023-138B,2026-06-20T07:04:23.218752,15.27577223,.00013167,43.0017,14.4566,284.4268,75.6437,0,U,57809,999,15443,.36561237E-4,.744E-5,0
STARLINK-30394,2023-138C,2026-06-19T23:33:57.498336,15.27596200,.00009902,43.0010,16.4043,279.6952,80.3787,0,U,57810,999,15428,.77083253E-3,.2102E-3,0
STARLINK-30379,2023-138D,2026-06-19T00:07:10.284096,15.27570103,.00015725,43.0018,21.9690,276.9021,83.1652,0,U,57811,999,15423,.83219259E-4,.2028E-4,0
STARLINK-30395,2023-138E,2026-06-19T23:45:02.863872,15.27580185,.00020942,43.0063,16.4543,274.1736,85.8876,0,U,57812,999,15438,.49806448E-4,.1108E-4,0
STARLINK-30403,2023-138F,2026-06-19T23:48:48.133728,15.27401626,.00004968,43.0060,16.4800,232.2431,127.8376,0,U,57813,999,15428,.11252957E-2,.30664E-3,0
STARLINK-30413,2023-138G,2026-06-19T15:11:55.615776,15.27577547,.0001099,43.0047,18.9432,266.3347,93.7379,0,U,57814,999,15432,-.6757931E-5,-.448E-5,0
STARLINK-30398,2023-138H,2026-06-20T00:05:23.764992,15.27586032,.00017348,43.0047,16.5643,268.2965,91.7688,0,U,57815,999,15428,.30069679E-4,.565E-5,0
STARLINK-30386,2023-138J,2026-06-19T14:46:03.348192,15.27563568,.00012656,43.0026,18.8102,279.0306,81.0403,0,U,57816,999,15414,-.20118474E-4,-.815E-5,0
STARLINK-30391,2023-138K,2026-06-20T06:33:08.186688,15.27600738,.00014152,43.0043,15.1421,264.5418,95.5272,0,U,57817,999,15442,.75584391E-3,.20608E-3,0
STARLINK-30401,2023-138L,2026-06-20T06:36:49.799232,15.27580976,.00014067,43.0056,15.1538,265.1799,94.8892,0,U,57818,999,15432,.39427912E-4,.823E-5,0
STARLINK-30390,2023-138M,2026-06-20T06:42:22.665600,15.27586005,.00014109,43.0046,15.1900,264.4426,95.6265,0,U,57819,999,15436,.27763344E-4,.502E-5,0
STARLINK-30409,2023-138N,2026-06-19T23:24:41.611968,15.27582420,.00016467,43.0042,16.3337,268.0217,92.0446,0,U,57820,999,15432,.21343632E-4,.325E-5,0
STARLINK-30415,2023-138P,2026-06-20T06:59:02.288544,15.27594593,.00014582,43.0058,15.2760,270.2061,89.8623,0,U,57821,999,15442,.23197024E-3,.6129E-4,0
STARLINK-30407,2023-138R,2026-06-20T06:16:55.798752,15.27590634,.00008052,43.0024,269.5104,245.9671,114.1096,0,U,57823,999,15565,-.71459012E-4,-.2228E-4,0
STARLINK-30408,2023-138S,2026-06-18T23:46:48.586368,15.27577033,.00017579,43.0040,21.8623,266.4100,93.6550,0,U,57824,999,15422,.21713504E-4,.335E-5,0
STARLINK-30377,2023-138T,2026-06-18T23:44:57.310080,15.27572483,.00020021,43.0040,21.8528,271.3326,88.7296,0,U,57825,999,15412,-.31117925E-4,-.1118E-4,0
STARLINK-30422,2023-138U,2026-06-19T23:50:35.895264,15.27574360,.00011142,43.0046,16.4796,288.7455,71.3276,0,U,57826,999,15437,.12855255E-3,.3276E-4,0
STARLINK-30402,2023-138V,2026-06-19T23:35:48.251904,15.27580660,.00012893,43.0029,16.4097,268.1875,91.8829,0,U,57827,999,15437,.36549577E-4,.744E-5,0
STARLINK-30411,2023-138W,2026-06-19T23:30:14.626080,15.27583235,.00014412,43.0029,16.3579,260.7615,99.3073,0,U,57828,999,15431,.30904476E-4,.588E-5,0
STARLINK-30418,2023-138X,2026-06-19T23:22:50.865312,15.27582184,.00016337,43.0027,16.3406,268.3095,91.7569,0,U,57829,999,15421,.24071965E-4,.4E-5,0
YAOGAN-40 01A,2023-139A,2026-06-20T06:29:09.159360,14.12448071,.00022307,85.9911,258.5703,100.7171,259.4263,0,U,57830,999,14313,.39943511E-4,.93E-6,0
YAOGAN-40 01B,2023-139C,2026-06-20T06:29:22.513344,14.12447377,.00023475,85.9909,258.5483,103.3256,256.8189,0,U,57832,999,14314,.48947304E-4,.109E-5,0
YAOGAN-40 01C,2023-139D,2026-06-20T06:29:15.577152,14.12447567,.00029535,85.9913,257.8338,91.4906,268.6615,0,U,57833,999,14324,.51279351E-4,.113E-5,0
STARLINK-30285,2023-141A,2026-06-20T05:24:40.428288,15.31706322,.00012641,53.1598,167.3539,86.1521,273.9625,0,U,57840,999,15603,.1297238E-4,.37E-6,0
STARLINK-30410,2023-141B,2026-06-20T07:12:02.460672,15.31707024,.00012907,53.1592,166.9246,87.4515,272.6634,0,U,57841,999,15604,-.10202721E-4,-.682E-5,0
STARLINK-30435,2023-141C,2026-06-20T04:31:00.362496,15.31703809,.00012622,53.1607,167.6787,75.6890,284.4251,0,U,57842,999,15602,.49003954E-4,.1156E-4,0
STARLINK-30423,2023-141D,2026-06-20T04:17:29.822496,15.31747799,.0002134,53.1599,167.5721,124.3199,235.8004,0,U,57843,999,15602,.22980076E-3,.6783E-4,0
STARLINK-30292,2023-141E,2026-06-20T07:12:29.870208,15.30192440,.00012629,53.1590,167.1243,86.5180,273.5965,0,U,57844,999,15604,.1583034E-4,.11E-5,0
STARLINK-30416,2023-141H,2026-06-20T05:44:50.881920,15.31693187,.00012069,53.1582,167.4127,73.9310,286.1825,0,U,57847,999,15603,.17933468E-3,.5203E-4,0
STARLINK-30426,2023-141J,2026-06-20T05:32:28.407840,15.30193357,.00013601,53.1600,167.8625,86.3387,273.7769,0,U,57848,999,15602,.24828333E-4,.376E-5,0
STARLINK-30430,2023-141K,2026-06-20T05:58:16.813344,15.31704825,.00013621,53.1596,167.5121,90.3266,269.7891,0,U,57849,999,15603,.4007534E-5,-.241E-5,0
STARLINK-30425,2023-141L,2026-06-20T07:11:05.108352,15.30194513,.0000794,53.1588,167.5849,91.8142,268.2950,0,U,57850,999,15603,.19227176E-4,.211E-5,0
STARLINK-30405,2023-141M,2026-06-20T07:05:22.016544,15.31690024,.00007481,53.1594,167.0370,76.2979,283.8106,0,U,57851,999,15604,.80815162E-4,.2143E-4,0
STARLINK-30431,2023-141N,2026-06-20T05:46:03.958176,15.30187803,.00013098,53.1590,167.4557,80.4589,279.6560,0,U,57852,999,15602,.13637244E-4,.45E-6,0
STARLINK-30404,2023-141P,2026-06-20T07:14:01.062816,15.30192993,.00017406,53.1591,167.1244,79.9896,280.1301,0,U,57853,999,15604,.19889624E-4,.23E-5,0
STARLINK-30412,2023-141Q,2026-06-20T05:55:09.534432,15.30193526,.00012947,53.1600,167.4940,90.2220,269.8929,0,U,57854,999,15603,.40969716E-4,.854E-5,0
STARLINK-30392,2023-141R,2026-06-20T04:16:32.672352,15.30193425,.00011183,53.1586,167.7747,90.6613,269.4516,0,U,57855,999,15602,.13888095E-4,.52E-6,0
STARLINK-30291,2023-141S,2026-06-20T05:11:14.051040,15.31698901,.00013715,53.1590,167.3049,106.8050,253.3102,0,U,57856,999,15603,.15396113E-3,.4415E-4,0
STARLINK-30424,2023-141T,2026-06-19T05:20:33.778752,15.30192764,.00015785,53.1589,146.5128,107.9743,252.1430,0,U,57857,999,15623,.98768731E-4,.2566E-4,0
STARLINK-30290,2023-141U,2026-06-20T04:30:13.982112,15.30201198,.00008181,53.1597,167.8363,85.9567,274.1527,0,U,57858,999,15602,.77838528E-4,.1947E-4,0
STARLINK-30414,2023-141V,2026-06-20T05:59:42.836640,15.30195932,.00012633,53.1598,167.5101,91.0964,269.0182,0,U,57859,999,15603,.24025677E-4,.352E-5,0
STARLINK-30272,2023-141W,2026-06-20T06:51:54.691488,15.31706006,.00013662,53.1604,167.0290,100.0890,260.0266,0,U,57860,999,15604,.46643324E-4,.1083E-4,0
STARLINK-30432,2023-144A,2026-06-20T01:10:03.459360,15.27594769,.00016877,43.0040,66.9916,272.0264,88.0394,0,U,57864,999,15325,.46029208E-4,.1005E-4,0
